[
    {
        "Altitude(m)": 554605.4511311105,
        "Argument of Periapsis(deg)": 0.019868973332140504,
        "Eccentricity": 0.0,
        "Inclination(deg)": 53.0,
        "Latitude(deg)": -2.5069493724231675,
        "Longitude(deg)": -30.500078941111017,
        "Mean Anomaly(deg)": -176.9979213972673,
        "RAAN(deg)": 249.97043010558406,
        "Satellite Name": "Starlink Shell 1 1109",
        "Satellite Number": 1109,
        "Semi-Major Axis(m)": 6931778.249405717,
        "Time(s)": 570
    },
    {
        "Altitude(m)": 554685.9808235813,
        "Argument of Periapsis(deg)": 0.02021755181165174,
        "Eccentricity": 0.0,
        "Inclination(deg)": 53.0,
        "Latitude(deg)": -3.010491871436057,
        "Longitude(deg)": -30.1638821775645,
        "Mean Anomaly(deg)": -176.37109019371056,
        "RAAN(deg)": 249.9699113355066,
        "Satellite Name": "Starlink Shell 1 1109",
        "Satellite Number": 1109,
        "Semi-Major Axis(m)": 6931778.249405717,
        "Time(s)": 580
    },
    {
        "Altitude(m)": 554769.2348057193,
        "Argument of Periapsis(deg)": 0.020566130291162974,
        "Eccentricity": 0.0,
        "Inclination(deg)": 53.0,
        "Latitude(deg)": -3.5138876587927252,
        "Longitude(deg)": -29.827346825235665,
        "Mean Anomaly(deg)": -175.7442589901538,
        "RAAN(deg)": 249.96939256542916,
        "Satellite Name": "Starlink Shell 1 1109",
        "Satellite Number": 1109,
        "Semi-Major Axis(m)": 6931778.249405717,
        "Time(s)": 590
    },
    {
        "Altitude(m)": 554855.1963670367,
        "Argument of Periapsis(deg)": 0.020914708770674213,
        "Eccentricity": 0.0,
        "Inclination(deg)": 53.0,
        "Latitude(deg)": -4.017113621039112,
        "Longitude(deg)": -29.49041486837333,
        "Mean Anomaly(deg)": -175.11742778659712,
        "RAAN(deg)": 249.96887379535167,
        "Satellite Name": "Starlink Shell 1 1109",
        "Satellite Number": 1109,
        "Semi-Major Axis(m)": 6931778.249405717,
        "Time(s)": 600
    },
    {
        "Altitude(m)": 554943.8474670883,
        "Argument of Periapsis(deg)": 0.021263287250185448,
        "Eccentricity": 0.0,
        "Inclination(deg)": 53.0,
        "Latitude(deg)": -4.520146566476384,
        "Longitude(deg)": -29.15302812064963,
        "Mean Anomaly(deg)": -174.4905965830404,
        "RAAN(deg)": 249.96835502527415,
        "Satellite Name": "Starlink Shell 1 1109",
        "Satellite Number": 1109,
        "Semi-Major Axis(m)": 6931778.249405717,
        "Time(s)": 610
    },
    {
        "Altitude(m)": 555035.1687417388,
        "Argument of Periapsis(deg)": 0.021611865729696686,
        "Eccentricity": 0.0,
        "Inclination(deg)": 53.0,
        "Latitude(deg)": -5.022963213186647,
        "Longitude(deg)": -28.815127695476033,
        "Mean Anomaly(deg)": -173.8637653794837,
        "RAAN(deg)": 249.96783625519674,
        "Satellite Name": "Starlink Shell 1 1109",
        "Satellite Number": 1109,
        "Semi-Major Axis(m)": 6931778.249405717,
        "Time(s)": 620
    },
    {
        "Altitude(m)": 555129.1395100575,
        "Argument of Periapsis(deg)": 0.02196044420920792,
        "Eccentricity": 0.0,
        "Inclination(deg)": 53.0,
        "Latitude(deg)": -5.525540176972837,
        "Longitude(deg)": -28.476655157238866,
        "Mean Anomaly(deg)": -173.23693417592696,
        "RAAN(deg)": 249.96731748511925,
        "Satellite Name": "Starlink Shell 1 1109",
        "Satellite Number": 1109,
        "Semi-Major Axis(m)": 6931778.249405717,
        "Time(s)": 630
    },
    {
        "Altitude(m)": 555225.7377819207,
        "Argument of Periapsis(deg)": 0.02230902268871916,
        "Eccentricity": 0.0,
        "Inclination(deg)": 53.0,
        "Latitude(deg)": -6.02785395919604,
        "Longitude(deg)": -28.137551151020066,
        "Mean Anomaly(deg)": -172.61010297237024,
        "RAAN(deg)": 249.96679871504176,
        "Satellite Name": "Starlink Shell 1 1109",
        "Satellite Number": 1109,
        "Semi-Major Axis(m)": 6931778.249405717,
        "Time(s)": 640
    },
    {
        "Altitude(m)": 555324.9402662423,
        "Argument of Periapsis(deg)": 0.022657601168230398,
        "Eccentricity": 0.0,
        "Inclination(deg)": 53.0,
        "Latitude(deg)": -6.529880934506118,
        "Longitude(deg)": -27.797756553710734,
        "Mean Anomaly(deg)": -171.98327176881352,
        "RAAN(deg)": 249.9662799449643,
        "Satellite Name": "Starlink Shell 1 1109",
        "Satellite Number": 1109,
        "Semi-Major Axis(m)": 6931778.249405717,
        "Time(s)": 650
    },
    {
        "Altitude(m)": 555426.7223798423,
        "Argument of Periapsis(deg)": 0.023006179647741636,
        "Eccentricity": 0.0,
        "Inclination(deg)": 53.0,
        "Latitude(deg)": -7.031597338447482,
        "Longitude(deg)": -27.457211944085913,
        "Mean Anomaly(deg)": -171.35644056525683,
        "RAAN(deg)": 249.96576117488684,
        "Satellite Name": "Starlink Shell 1 1109",
        "Satellite Number": 1109,
        "Semi-Major Axis(m)": 6931778.249405717,
        "Time(s)": 660
    },
    {
        "Altitude(m)": 555531.0582570031,
        "Argument of Periapsis(deg)": 0.023354758127252868,
        "Eccentricity": 0.0,
        "Inclination(deg)": 53.0,
        "Latitude(deg)": -7.53297925493114,
        "Longitude(deg)": -27.115857072806346,
        "Mean Anomaly(deg)": -170.72960936170014,
        "RAAN(deg)": 249.96524240480935,
        "Satellite Name": "Starlink Shell 1 1109",
        "Satellite Number": 1109,
        "Semi-Major Axis(m)": 6931778.249405717,
        "Time(s)": 670
    },
    {
        "Altitude(m)": 555637.9207596099,
        "Argument of Periapsis(deg)": 0.023703336606764106,
        "Eccentricity": 0.0,
        "Inclination(deg)": 53.0,
        "Latitude(deg)": -8.034002603563827,
        "Longitude(deg)": -26.773631845216766,
        "Mean Anomaly(deg)": -170.1027781581434,
        "RAAN(deg)": 249.96472363473188,
        "Satellite Name": "Starlink Shell 1 1109",
        "Satellite Number": 1109,
        "Semi-Major Axis(m)": 6931778.249405717,
        "Time(s)": 680
    },
    {
        "Altitude(m)": 555747.2814879819,
        "Argument of Periapsis(deg)": 0.024051915086275345,
        "Eccentricity": 0.0,
        "Inclination(deg)": 53.0,
        "Latitude(deg)": -8.534643126817658,
        "Longitude(deg)": -26.43047579119165,
        "Mean Anomaly(deg)": -169.47594695458665,
        "RAAN(deg)": 249.9642048646544,
        "Satellite Name": "Starlink Shell 1 1109",
        "Satellite Number": 1109,
        "Semi-Major Axis(m)": 6931778.249405717,
        "Time(s)": 690
    },
    {
        "Altitude(m)": 555859.1107922801,
        "Argument of Periapsis(deg)": 0.024400493565786583,
        "Eccentricity": 0.0,
        "Inclination(deg)": 53.0,
        "Latitude(deg)": -9.034876377031102,
        "Longitude(deg)": -26.086327534898103,
        "Mean Anomaly(deg)": -168.84911575102996,
        "RAAN(deg)": 249.9636860945769,
        "Satellite Name": "Starlink Shell 1 1109",
        "Satellite Number": 1109,
        "Semi-Major Axis(m)": 6931778.249405717,
        "Time(s)": 700
    },
    {
        "Altitude(m)": 555973.3777845926,
        "Argument of Periapsis(deg)": 0.024749072045297815,
        "Eccentricity": 0.0,
        "Inclination(deg)": 53.0,
        "Latitude(deg)": -9.53467770323166,
        "Longitude(deg)": -25.74112577734934,
        "Mean Anomaly(deg)": -168.22228454747324,
        "RAAN(deg)": 249.9631673244995,
        "Satellite Name": "Starlink Shell 1 1109",
        "Satellite Number": 1109,
        "Semi-Major Axis(m)": 6931778.249405717,
        "Time(s)": 710
    },
    {
        "Altitude(m)": 556090.0503515814,
        "Argument of Periapsis(deg)": 0.025097650524809053,
        "Eccentricity": 0.0,
        "Inclination(deg)": 53.0,
        "Latitude(deg)": -10.034022237763487,
        "Longitude(deg)": -25.394808766000253,
        "Mean Anomaly(deg)": -167.59545334391655,
        "RAAN(deg)": 249.962648554422,
        "Satellite Name": "Starlink Shell 1 1109",
        "Satellite Number": 1109,
        "Semi-Major Axis(m)": 6931778.249405717,
        "Time(s)": 720
    },
    {
        "Altitude(m)": 556209.0951677781,
        "Argument of Periapsis(deg)": 0.02544622900432029,
        "Eccentricity": 0.0,
        "Inclination(deg)": 53.0,
        "Latitude(deg)": -10.532884882710595,
        "Longitude(deg)": -25.047313764259734,
        "Mean Anomaly(deg)": -166.9686221403598,
        "RAAN(deg)": 249.96212978434448,
        "Satellite Name": "Starlink Shell 1 1109",
        "Satellite Number": 1109,
        "Semi-Major Axis(m)": 6931778.249405717,
        "Time(s)": 730
    },
    {
        "Altitude(m)": 556330.4777094733,
        "Argument of Periapsis(deg)": 0.02579480748383153,
        "Eccentricity": 0.0,
        "Inclination(deg)": 53.0,
        "Latitude(deg)": -11.0312402961059,
        "Longitude(deg)": -24.698578033794213,
        "Mean Anomaly(deg)": -166.34179093680308,
        "RAAN(deg)": 249.96161101426708,
        "Satellite Name": "Starlink Shell 1 1109",
        "Satellite Number": 1109,
        "Semi-Major Axis(m)": 6931778.249405717,
        "Time(s)": 740
    },
    {
        "Altitude(m)": 556454.1622691778,
        "Argument of Periapsis(deg)": 0.026143385963342765,
        "Eccentricity": 0.0,
        "Inclination(deg)": 53.0,
        "Latitude(deg)": -11.529062877909185,
        "Longitude(deg)": -24.348538303879483,
        "Mean Anomaly(deg)": -165.71495973324636,
        "RAAN(deg)": 249.9610922441896,
        "Satellite Name": "Starlink Shell 1 1109",
        "Satellite Number": 1109,
        "Semi-Major Axis(m)": 6931778.249405717,
        "Time(s)": 750
    }
]